{
  "norad_id": 65874,
  "name": "STARLINK-35425",
  "history": [
    {
      "epoch": "2026-03-28T18:13:49.010592Z",
      "apogee_km": 476.00815497943313,
      "perigee_km": 474.33430297758787,
      "latitude_deg": -5.65594994160154e-05,
      "longitude_deg": 106.08492016021461,
      "height_km": 475.7190655737856,
      "semi_major_axis_km": 6853.308228978511,
      "eccentricity": 0.00012212,
      "inclination_deg": 53.1577,
      "raan_deg": 205.7146,
      "arg_perigee_deg": 65.2618,
      "mean_anomaly_deg": 294.8509,
      "mean_motion_rev_day": 15.30214683
    },
    {
      "epoch": "2026-03-29T00:30:02.511360Z",
      "apogee_km": 476.6418982072064,
      "perigee_km": 473.8566820189044,
      "latitude_deg": 1.6328458976794454e-05,
      "longitude_deg": 10.557104314892982,
      "height_km": 475.8684675372771,
      "semi_major_axis_km": 6853.386290113055,
      "eccentricity": 0.0002032,
      "inclination_deg": 53.1589,
      "raan_deg": 204.5005,
      "arg_perigee_deg": 78.4953,
      "mean_anomaly_deg": 281.6276,
      "mean_motion_rev_day": 15.30188539
    },
    {
      "epoch": "2026-03-30T00:00:50.731488Z",
      "apogee_km": 475.8248884542518,
      "perigee_km": 474.4446395209852,
      "latitude_deg": -2.177028375593679e-05,
      "longitude_deg": 12.340898427822399,
      "height_km": 475.9119011089898,
      "semi_major_axis_km": 6853.271763987618,
      "eccentricity": 0.0001007,
      "inclination_deg": 53.1573,
      "raan_deg": 199.9509,
      "arg_perigee_deg": 79.8987,
      "mean_anomaly_deg": 280.2127,
      "mean_motion_rev_day": 15.30226896
    }
  ]
}